YAM-3                   
1 48915U 21059AN  24113.37917655  .00018399  00000+0  76131-3 0  9998
2 48915  97.6360 255.1686 0007908 271.6494  88.3837 15.23978750156321
LEMUR-2-ANNABANANA      
1 48923U 21059AW  24113.39031833  .00168675  00000+0  12052-2 0  9998
2 48923  97.5797 275.3662 0005260 218.4732 141.6157 15.73243256157740
FARADAY_PHOENIX         
1 48924U 21059AX  24113.36123426  .00021152  00000+0  83205-3 0  9993
2 48924  97.6401 257.4301 0013166 270.3821  89.5907 15.25597451156439
PAINANI-2               
1 48928U 21059BB  24113.35432302  .00075115  00000+0  16542-2 0  9999
2 48928  97.6350 264.3934 0008240 246.1315 113.9069 15.43644625156887
SHERPA-LTE1             
1 48941U 21059BQ  24113.43896097  .00174774  00000+0  99346-3 0  9993
2 48941  97.6086 289.1798 0002321 221.1788 138.9303 15.78497773158543
QMR-KWT                 
1 48943U 21059BS  24113.36558389  .00107975  00000+0  18859-2 0  9994
2 48943  97.6268 265.0791 0004607 245.2702 114.8069 15.50276618156975
DEMO8 (TENZING)         
1 48951U 21059CA  24113.34557733  .00020127  00000+0  80703-3 0  9994
2 48951  97.6446 257.4664 0012126 281.8782  78.1095 15.24979707156426
ASTROCAST-0201          
1 48954U 21059CD  24113.39802310  .00024403  00000+0  88900-3 0  9994
2 48954  97.6262 258.0645 0008677 274.3004  85.7243 15.28158721156531
ASTROCAST-0203          
1 48955U 21059CE  24113.35368960  .00027638  00000+0  10048-2 0  9999
2 48955  97.6237 257.5932 0010700 270.6769  89.3244 15.28179973156526
ASTROCAST-0205          
1 48960U 21059CK  24113.37592226  .00029481  00000+0  10722-2 0  9998
2 48960  97.6240 257.9352 0009887 245.3983 114.6227 15.28162526156537
NAPA-2                  
1 48963U 21059CN  24113.38868810  .00021993  00000+0  88214-3 0  9999
2 48963  97.6339 254.1835 0009280 273.1606  86.8570 15.24977627156276
W-CUBE                  
1 48965U 21059CQ  24113.35555524  .00033010  00000+0  11815-2 0  9998
2 48965  97.6372 256.6843 0008364 262.8052  97.2236 15.28675926156392
NEPT-1                  
1 48966U 21059CR  24113.38575768  .00130478  00000+0  19483-2 0  9999
2 48966  97.6174 264.8569 0005938 230.7533 129.3193 15.54568881157043
JILIN-1 GAOFEN 3D01     
1 49004U 21061B   24113.44811887  .00034723  00000+0  13171-2 0  9992
2 49004  97.4025 178.5861 0007931 348.8753  11.2309 15.26750431155102
JILIN-1 GAOFEN 3D03     
1 49006U 21061D   24113.41284594  .00028713  00000+0  12238-2 0  9995
2 49006  97.4005 175.9917 0009789  43.0861 317.1140 15.22862898154930
XINGSHIDAI 10           
1 49007U 21061E   24113.40663533  .00028810  00000+0  12194-2 0  9998
2 49007  97.4009 175.9227 0011667  27.7328 332.4529 15.23080953154929
FENGYUN 3E              
1 49008U 21062A   24113.46115798  .00000176  00000+0  10376-3 0  9997
2 49008  98.7331 115.4880 0001751 151.4045 208.7228 14.19744676145081
ISS (NAUKA)             
1 49044U 21066A   24113.60677969  .00035196  00000+0  60741-3 0  9991
2 49044  51.6403 230.9991 0004788  88.2778   7.6998 15.50661244449754
BRO-4                   
1 49066U 21073A   24113.47443817  .00051084  00000+0  17886-2 0  9996
2 49066  97.4510 189.1601 0020268 101.0977 259.2544 15.29126793148236
RADCUBE                 
1 49067U 21073B   24113.21377968  .00120127  00000+0  25293-2 0  9998
2 49067  97.4429 192.5710 0012407  98.8533 261.4121 15.44748886148430
SUNSTORM                
1 49068U 21073C   24113.15759619  .00117837  00000+0  26772-2 0  9996
2 49068  97.4477 191.7915 0013722 104.9785 255.2983 15.42476662148368
LEDSAT                  
1 49069U 21073D   24113.17039600  .00033766  00000+0  14458-2 0  9996
2 49069  97.4411 184.7574 0021566 120.9037 239.4324 15.22501187147926
STARLINK-3100           
1 49144U 21082Q   24113.40892464  .00002788  00000+0  24117-3 0  9995
2 49144  70.0001 224.7996 0002821 255.4498 104.6349 14.98364102143183
CUTE                    
1 49263U 21088D   24113.18631587  .00034073  00000+0  17091-2 0  9999
2 49263  97.5023 179.6346 0013355 272.1864  87.7840 15.17169267141145
2021-091B               
1 49316U 21091B   24113.45373912  .00009861  00000+0  48485-3 0  9996
2 49316  97.4573 301.6857 0007404  70.5194 289.6839 15.18203557139758
2021-091H               
1 49322U 21091H   24113.43769047  .00035625  00000+0  10177-2 0  9992
2 49322  97.4458 308.8309 0010023 272.4860  87.5236 15.35874001140241
SDGSAT 1                
1 49387U 21100A   24113.40231613  .00010056  00000+0  46733-3 0  9993
2 49387  97.3705 173.0982 0002176 132.4449 227.6971 15.20175722136586
ASTERISC                
1 49395U 21102A   24113.36950594  .00053876  00000+0  24132-2 0  9990
2 49395  97.4391 165.3734 0011990  68.6816 291.5698 15.20993306134803
TEIKYOSAT-4 (OORURI)    
1 49396U 21102B   24113.36580030  .00005443  00000+0  39771-3 0  9998
2 49396  97.4649 160.2710 0015043 105.1195 255.1696 15.03952279134368
Z-SAT                   
1 49399U 21102E   24113.40615173  .00010670  00000+0  69815-3 0  9993
2 49399  97.4378 161.7363 0022311  90.2099 270.1686 15.07732253134585
HIBARI                  
1 49400U 21102F   24113.13198376  .00016689  00000+0  99851-3 0  9996
2 49400  97.4362 162.9131 0019782  80.8320 279.5147 15.10941744134651
KOSEN-1                 
1 49402U 21102H   24113.09156482  .00015333  00000+0  92853-3 0  9995
2 49402  97.4299 162.6800 0020596  77.0444 283.3084 15.10509453134674
GLOBAL-14               
1 49469U 21106A   24113.38415660  .00044784  00000+0  11495-2 0  9994
2 49469  42.0102 198.9196 0006521   1.8391 358.2471 15.38551751137059
GLOBAL-15               
1 49470U 21106B   24113.38844276  .00090364  00000+0  12735-2 0  9998
2 49470  41.9992 226.7977 0026268   8.4467 351.6816 15.55183480136733
GAOFEN-3 02             
1 49495U 21109A   24113.41168366  .00000390  00000+0  13123-3 0  9994
2 49495  98.4143 121.4957 0001857 147.6209 212.5095 14.42328387127052
GLOBAL-12               
1 49772U 21115BA  24113.39131617  .00041616  00000+0  10455-2 0  9995
2 49772  53.2047 152.0231 0005939  28.4447 331.6882 15.39584184134738
GLOBAL-13               
1 49773U 21115BB  24113.42876925  .00040414  00000+0  10216-2 0  9998
2 49773  53.2066 153.0623 0006493   8.0898 352.0211 15.39405535134720
TIANJIN UNIVERSITY 1 (*)
1 49812U 21117A   24113.43403498  .00254222  00000+0  19668-2 0  9990
2 49812  97.3177 206.2259 0002100  41.3594 318.7828 15.71115830133449
GLOBAL-17               
1 49949U 21120A   24113.07721804  .00042162  00000+0  11054-2 0  9998
2 49949  42.0063 327.6769 0010746 245.0965 114.8757 15.37886333133682
GLOBAL-16               
1 49950U 21120B   24113.04824812  .00015592  00000+0  41642-3 0  9994
2 49950  42.0059 327.4431 0009828 261.7425  98.2300 15.37769212133672
XW-3 (CAS-9)            
1 50466U 21131B   24113.45307878  .00002363  00000+0  77181-3 0  9992
2 50466  98.5271 198.7900 0002981 298.4359  61.6528 14.39513611121982
UMBRA-02                
1 50986U 22002C   24113.17089780  .00082481  00000+0  36743-2 0  9992
2 50986  97.3973 178.7262 0007299 153.6971 206.4637 15.21073818125732
TEVEL-3                 
1 50988U 22002E   24113.44160938  .00150329  00000+0  24446-2 0  9993
2 50988  97.3842 187.1466 0005330 201.1589 158.9444 15.52132851126361
TEVEL-8                 
1 50989U 22002F   24113.41347258  .00149969  00000+0  24515-2 0  9998
2 50989  97.3866 187.2061 0005335 202.3146 157.7875 15.51987878126357
ION SCV-004             
1 50993U 22002K   24113.12918686  .00011643  00000+0  57246-3 0  9995
2 50993  97.3934 175.2655 0008522 240.2554 119.7832 15.18151777125511
TEVEL-5                 
1 50998U 22002Q   24113.47639006  .00176554  00000+0  25389-2 0  9999
2 50998  97.3832 188.2455 0005801 196.2379 163.8691 15.55440946126443
TEVEL-6                 
1 50999U 22002R   24113.41548949  .00168601  00000+0  24397-2 0  9991
2 50999  97.3826 188.1579 0005719 196.1644 163.9429 15.55298520126433
TEVEL-1                 
1 51013U 22002AF  24113.46654094  .00152199  00000+0  24870-2 0  9994
2 51013  97.3831 187.0461 0005291 197.3409 162.7664 15.51990787126362
IRIS-A                  
1 51044U 22002BN  24113.14754155  .00038606  00000+0  13719-2 0  9998
2 51044  97.3890 179.9468 0006008 218.0424 142.0392 15.28890461125857
FLOCK 4X-28             
1 51045U 22002BP  24113.18636918  .00107407  00000+0  16963-2 0  9999
2 51045  97.3835 190.4877 0005666 171.7000 188.4348 15.53104705126542
FLOCK 4X-19             
1 51046U 22002BQ  24113.15527795  .05106924  24140-5  26379-2 0  9996
2 51046  97.3610 196.7230 0012883 269.7131  90.2681 16.20189182126938
KEPLER-19               
1 51051U 22002BV  24113.41019633  .00036782  00000+0  14306-2 0  9997
2 51051  97.3940 178.8732 0006538 219.5204 140.5558 15.25913737125781
ETV-A1                  
1 51060U 22002CE  24113.39699300  .00015603  00000+0  72037-3 0  9994
2 51060  97.3953 177.1040 0006887 254.5061 105.5414 15.20278448125641
BRO-5                   
1 51061U 22002CF  24113.43770716  .00030308  00000+0  13161-2 0  9992
2 51061  97.4005 178.4696 0007075 254.4042 105.6414 15.22237848125710
TEVEL-7                 
1 51062U 22002CG  24113.46915994  .00153280  00000+0  24925-2 0  9990
2 51062  97.3851 187.2383 0005309 197.2413 162.8660 15.52123254126362
TEVEL-4                 
1 51063U 22002CH  24113.43539425  .00150764  00000+0  24808-2 0  9993
2 51063  97.3853 187.1221 0005383 197.1782 162.9289 15.51799668126359
TEVEL-2                 
1 51069U 22002CP  24113.44023541  .00153226  00000+0  24873-2 0  9995
2 51069  97.3838 187.1129 0005292 199.9993 160.1052 15.52172278126360
VZLUSAT-2               
1 51085U 22002DF  24113.42864011  .00027392  00000+0  10818-2 0  9994
2 51085  97.3927 178.6285 0009785 241.5534 118.4719 15.25442059125767
L-SAR 01A               
1 51284U 22007A   24113.43314589  .00003267  00000+0  35797-3 0  9990
2 51284  97.8095 121.1074 0001630  92.3633 267.7771 14.88436177121596
